STARLINK-2399           
1 47816U 21018AF  26068.72660243  .00000393  00000+0  45294-4 0  9992
2 47816  53.0566 251.4493 0001359  96.4804 263.6339 15.06394647276596
TYVAK-182A              
1 48271U 21034D   26068.71131789  .00007163  00000+0  50673-3 0  9991
2 48271  97.5843 129.3711 0004862 316.5650  43.5193 15.05150420264864
